STARLINK-5061           
1 54847U 22177AD  26068.46519437 -.00001024  00000+0 -60750-4 0  9998
2 54847  43.0040 108.3577 0001276 269.0356  91.0340 15.02532329177227
EINSTEIN PROBE          
1 58753U 24007A   26068.60284448  .00004372  00000+0  31977-3 0  9994
2 58753  28.9980 140.9090 0009522 248.3814 111.5770 15.01336938118581
